[{"OBJECT_NAME":"STARLINK-3398","OBJECT_ID":"2022-005S","EPOCH":"2026-03-09T22:05:57.854400","MEAN_MOTION":15.088389,"ECCENTRICITY":0.00014316,"INCLINATION":53.2187,"RA_OF_ASC_NODE":288.0944,"ARG_OF_PERICENTER":87.3193,"MEAN_ANOMALY":272.7963,"EPHEMERIS_TYPE":0,"CLASSIFICATION_TYPE":"U","NORAD_CAT_ID":51120,"ELEMENT_SET_NO":999,"REV_AT_EPOCH":22891,"BSTAR":8.364056e-6,"MEAN_MOTION_DOT":-1.55e-6,"MEAN_MOTION_DDOT":0},{"OBJECT_NAME":"CZ-4B DEB","OBJECT_ID":"2008-053M","EPOCH":"2026-03-05T07:18:48.921696","MEAN_MOTION":15.08195439,"ECCENTRICITY":0.0017401,"INCLINATION":97.8281,"RA_OF_ASC_NODE":90.6528,"ARG_OF_PERICENTER":258.7901,"MEAN_ANOMALY":101.1371,"EPHEMERIS_TYPE":0,"CLASSIFICATION_TYPE":"U","NORAD_CAT_ID":44593,"ELEMENT_SET_NO":999,"REV_AT_EPOCH":67199,"BSTAR":0.00019653,"MEAN_MOTION_DOT":2.982e-5,"MEAN_MOTION_DDOT":0}]
